{"type": "FeatureCollection", "features": [ {"type": "Feature", "properties": {"norad_id": 33492, "name": "GOSAT (IBUKI)", "group": "resource", "lat": -13.45207918846073, "lon": 89.07469471150104, "alt_km": 673.3181778566959, "timestamp": "2025-12-04T09:47:37.179383+00:00", "meta": {"OBJECT_NAME": "GOSAT (IBUKI)", "OBJECT_ID": "2009-002A", "EPOCH": "2025-12-03T20:45:52.301088", "MEAN_MOTION": 14.67545981, "ECCENTRICITY": 9.121e-05, "INCLINATION": 98.0771, "RA_OF_ASC_NODE": 86.5929, "ARG_OF_PERICENTER": 63.8564, "MEAN_ANOMALY": 296.2734, "EPHEMERIS_TYPE": 0, "CLASSIFICATION_TYPE": "U", "NORAD_CAT_ID": 33492, "ELEMENT_SET_NO": 999, "REV_AT_EPOCH": 90281, "BSTAR": 0.00031038459, "MEAN_MOTION_DOT": 1.713e-05, "MEAN_MOTION_DDOT": 0}, "tle": {"line1": "1 33492U 09002A   25337.86518867  .00001713  00000+0  31038-3 0  9990", "line2": "2 33492  98.0771  86.5929 0000912  63.8564 296.2734 14.67545981902811"}}, "geometry": {"type": "Point", "coordinates": [89.07469471150104, -13.45207918846073]}}, {"type": "Feature", "properties": {"norad_id": 35681, "name": "DEIMOS-1", "group": "resource", "lat": -22.93946665046921, "lon": -43.88936789296588, "alt_km": 651.4231773522615, "timestamp": "2025-12-04T09:47:37.179394+00:00", "meta": {"OBJECT_NAME": "DEIMOS-1", "OBJECT_ID": "2009-041A", "EPOCH": "2025-12-03T23:06:25.373088", "MEAN_MOTION": 14.74931905, "ECCENTRICITY": 0.00026862, "INCLINATION": 97.7146, "RA_OF_ASC_NODE": 138.9752, "ARG_OF_PERICENTER": 95.9756, "MEAN_ANOMALY": 264.176, "EPHEMERIS_TYPE": 0, "CLASSIFICATION_TYPE": "U", "NORAD_CAT_ID": 35681, "ELEMENT_SET_NO": 999, "REV_AT_EPOCH": 87810, "BSTAR": 0.00020692941, "MEAN_MOTION_DOT": 1.342e-05, "MEAN_MOTION_DDOT": 0}, "tle": {"line1": "1 35681U 09041A   25337.96279367  .00001342  00000+0  20693-3 0  9998", "line2": "2 35681  97.7146 138.9752 0002686  95.9756 264.1760 14.74931905878100"}}, "geometry": {"type": "Point", "coordinates": [-43.88936789296588, -22.93946665046921]}}, {"type": "Feature", "properties": {"norad_id": 35682, "name": "DUBAISAT-1", "group": "resource", "lat": 31.131451956304975, "lon": -65.92978788584294, "alt_km": 651.711394258281, "timestamp": "2025-12-04T09:47:37.179404+00:00", "meta": {"OBJECT_NAME": "DUBAISAT-1", "OBJECT_ID": "2009-041B", "EPOCH": "2025-12-03T21:43:21.494496", "MEAN_MOTION": 14.74564092, "ECCENTRICITY": 0.00101182, "INCLINATION": 97.9785, "RA_OF_ASC_NODE": 108.7155, "ARG_OF_PERICENTER": 344.7511, "MEAN_ANOMALY": 15.3391, "EPHEMERIS_TYPE": 0, "CLASSIFICATION_TYPE": "U", "NORAD_CAT_ID": 35682, "ELEMENT_SET_NO": 999, "REV_AT_EPOCH": 87631, "BSTAR": 0.00034587999, "MEAN_MOTION_DOT": 2.255e-05, "MEAN_MOTION_DDOT": 0}, "tle": {"line1": "1 35682U 09041B   25337.90510989  .00002255  00000+0  34588-3 0  9993", "line2": "2 35682  97.9785 108.7155 0010118 344.7511  15.3391 14.74564092876313"}}, "geometry": {"type": "Point", "coordinates": [-65.92978788584294, 31.131451956304975]}}, {"type": "Feature", "properties": {"norad_id": 35931, "name": "OCEANSAT-2", "group": "resource", "lat": 50.23502737164116, "lon": -30.15374873144382, "alt_km": 878.8414100065429, "timestamp": "2025-12-04T09:47:37.179415+00:00", "meta": {"OBJECT_NAME": "OCEANSAT-2", "OBJECT_ID": "2009-051A", "EPOCH": "2025-12-03T23:15:26.670816", "MEAN_MOTION": 13.99626568, "ECCENTRICITY": 0.00165706, "INCLINATION": 98.223, "RA_OF_ASC_NODE": 339.459, "ARG_OF_PERICENTER": 67.8446, "MEAN_ANOMALY": 292.4477, "EPHEMERIS_TYPE": 0, "CLASSIFICATION_TYPE": "U", "NORAD_CAT_ID": 35931, "ELEMENT_SET_NO": 999, "REV_AT_EPOCH": 85202, "BSTAR": -7.2665432e-05, "MEAN_MOTION_DOT": -1.44e-06, "MEAN_MOTION_DDOT": 0}, "tle": {"line1": "1 35931U 09051A   25337.96905869 -.00000144  00000+0 -72665-4 0  9998", "line2": "2 35931  98.2230 339.4590 0016570  67.8446 292.4477 13.99626568852021"}}, "geometry": {"type": "Point", "coordinates": [-30.15374873144382, 50.23502737164116]}}, {"type": "Feature", "properties": {"norad_id": 35946, "name": "WORLDVIEW-2 (WV-2)", "group": "resource", "lat": 65.53823097743492, "lon": -111.2538477243239, "alt_km": 756.3903492945683, "timestamp": "2025-12-04T09:47:37.179425+00:00", "meta": {"OBJECT_NAME": "WORLDVIEW-2 (WV-2)", "OBJECT_ID": "2009-055A", "EPOCH": "2025-12-03T21:34:40.345248", "MEAN_MOTION": 14.37646406, "ECCENTRICITY": 0.00054379, "INCLINATION": 98.4771, "RA_OF_ASC_NODE": 49.1069, "ARG_OF_PERICENTER": 88.0941, "MEAN_ANOMALY": 272.0868, "EPHEMERIS_TYPE": 0, "CLASSIFICATION_TYPE": "U", "NORAD_CAT_ID": 35946, "ELEMENT_SET_NO": 999, "REV_AT_EPOCH": 84758, "BSTAR": 0.00013956422, "MEAN_MOTION_DOT": 3.76e-06, "MEAN_MOTION_DDOT": 0}, "tle": {"line1": "1 35946U 09055A   25337.89907807  .00000376  00000+0  13956-3 0  9996", "line2": "2 35946  98.4771  49.1069 0005437  88.0941 272.0868 14.37646406847589"}}, "geometry": {"type": "Point", "coordinates": [-111.2538477243239, 65.53823097743492]}}, {"type": "Feature", "properties": {"norad_id": 36036, "name": "SMOS", "group": "resource", "lat": 80.68949996269336, "lon": 98.69118851468146, "alt_km": 751.0586989479871, "timestamp": "2025-12-04T09:47:37.179435+00:00", "meta": {"OBJECT_NAME": "SMOS", "OBJECT_ID": "2009-059A", "EPOCH": "2025-12-03T11:42:47.292768", "MEAN_MOTION": 14.39788746, "ECCENTRICITY": 0.00010256, "INCLINATION": 98.4384, "RA_OF_ASC_NODE": 162.673, "ARG_OF_PERICENTER": 72.1979, "MEAN_ANOMALY": 287.9321, "EPHEMERIS_TYPE": 0, "CLASSIFICATION_TYPE": "U", "NORAD_CAT_ID": 36036, "ELEMENT_SET_NO": 999, "REV_AT_EPOCH": 84529, "BSTAR": 0.00020750236, "MEAN_MOTION_DOT": 6.07e-06, "MEAN_MOTION_DDOT": 0}, "tle": {"line1": "1 36036U 09059A   25337.48804737  .00000607  00000+0  20750-3 0  9991", "line2": "2 36036  98.4384 162.6730 0001025  72.1979 287.9321 14.39788746845291"}}, "geometry": {"type": "Point", "coordinates": [98.69118851468146, 80.68949996269336]}}, {"type": "Feature", "properties": {"norad_id": 36110, "name": "YAOGAN-7", "group": "resource", "lat": -33.08609688406928, "lon": 34.91685928991858, "alt_km": 644.4616430603828, "timestamp": "2025-12-04T09:47:37.179445+00:00", "meta": {"OBJECT_NAME": "YAOGAN-7", "OBJECT_ID": "2009-069A", "EPOCH": "2025-12-04T03:57:12.938112", "MEAN_MOTION": 14.77712701, "ECCENTRICITY": 0.0023749, "INCLINATION": 98.0303, "RA_OF_ASC_NODE": 219.9521, "ARG_OF_PERICENTER": 310.28, "MEAN_ANOMALY": 49.6334, "EPHEMERIS_TYPE": 0, "CLASSIFICATION_TYPE": "U", "NORAD_CAT_ID": 36110, "ELEMENT_SET_NO": 999, "REV_AT_EPOCH": 86082, "BSTAR": 0.00019969, "MEAN_MOTION_DOT": 1.384e-05, "MEAN_MOTION_DDOT": 0}, "tle": {"line1": "1 36110U 09069A   25338.16473308  .00001384  00000+0  19969-3 0  9990", "line2": "2 36110  98.0303 219.9521 0023749 310.2800  49.6334 14.77712701860824"}}, "geometry": {"type": "Point", "coordinates": [34.91685928991858, -33.08609688406928]}}, {"type": "Feature", "properties": {"norad_id": 36605, "name": "TANDEM-X", "group": "resource", "lat": -60.24720322337253, "lon": -2.866928748759874, "alt_km": 516.6289322225575, "timestamp": "2025-12-04T09:47:37.179455+00:00", "meta": {"OBJECT_NAME": "TANDEM-X", "OBJECT_ID": "2010-030A", "EPOCH": "2025-12-03T15:05:32.620128", "MEAN_MOTION": 15.19160106, "ECCENTRICITY": 0.00017772, "INCLINATION": 97.4443, "RA_OF_ASC_NODE": 343.1419, "ARG_OF_PERICENTER": 93.6994, "MEAN_ANOMALY": 266.4444, "EPHEMERIS_TYPE": 0, "CLASSIFICATION_TYPE": "U", "NORAD_CAT_ID": 36605, "ELEMENT_SET_NO": 999, "REV_AT_EPOCH": 85695, "BSTAR": 0.00010004139, "MEAN_MOTION_DOT": 2.035e-05, "MEAN_MOTION_DDOT": 0}, "tle": {"line1": "1 36605U 10030A   25337.62884977  .00002035  00000+0  10004-3 0  9992", "line2": "2 36605  97.4443 343.1419 0001777  93.6994 266.4444 15.19160106856953"}}, "geometry": {"type": "Point", "coordinates": [-2.866928748759874, -60.24720322337253]}}, {"type": "Feature", "properties": {"norad_id": 36795, "name": "CARTOSAT-2B", "group": "resource", "lat": 68.66553776578675, "lon": -131.78286496289408, "alt_km": 617.6016118491989, "timestamp": "2025-12-04T09:47:37.179466+00:00", "meta": {"OBJECT_NAME": "CARTOSAT-2B", "OBJECT_ID": "2010-035A", "EPOCH": "2025-12-03T23:33:19.681920", "MEAN_MOTION": 14.78766526, "ECCENTRICITY": 0.00128855, "INCLINATION": 97.7866, "RA_OF_ASC_NODE": 27.2959, "ARG_OF_PERICENTER": 103.2976, "MEAN_ANOMALY": 256.9674, "EPHEMERIS_TYPE": 0, "CLASSIFICATION_TYPE": "U", "NORAD_CAT_ID": 36795, "ELEMENT_SET_NO": 999, "REV_AT_EPOCH": 83100, "BSTAR": 0.00017292735, "MEAN_MOTION_DOT": 1.222e-05, "MEAN_MOTION_DDOT": 0}, "tle": {"line1": "1 36795U 10035A   25337.98147780  .00001222  00000+0  17293-3 0  9994", "line2": "2 36795  97.7866  27.2959 0012885 103.2976 256.9674 14.78766526831004"}}, "geometry": {"type": "Point", "coordinates": [-131.78286496289408, 68.66553776578675]}}, {"type": "Feature", "properties": {"norad_id": 36834, "name": "YAOGAN-10", "group": "resource", "lat": 15.544781582638155, "lon": -3.926603714759346, "alt_km": 615.3575187915203, "timestamp": "2025-12-04T09:47:37.179476+00:00", "meta": {"OBJECT_NAME": "YAOGAN-10", "OBJECT_ID": "2010-038A", "EPOCH": "2025-12-03T19:57:32.552064", "MEAN_MOTION": 14.84554289, "ECCENTRICITY": 0.00015101, "INCLINATION": 97.915, "RA_OF_ASC_NODE": 357.7191, "ARG_OF_PERICENTER": 84.468, "MEAN_ANOMALY": 92.504, "EPHEMERIS_TYPE": 0, "CLASSIFICATION_TYPE": "U", "NORAD_CAT_ID": 36834, "ELEMENT_SET_NO": 999, "REV_AT_EPOCH": 82821, "BSTAR": 0.00024459282, "MEAN_MOTION_DOT": 2.01e-05, "MEAN_MOTION_DDOT": 0}, "tle": {"line1": "1 36834U 10038A   25337.83162676  .00002010  00000+0  24459-3 0  9994", "line2": "2 36834  97.9150 357.7191 0001510  84.4680  92.5040 14.84554289828218"}}, "geometry": {"type": "Point", "coordinates": [-3.926603714759346, 15.544781582638155]}}]}